COSMOS 1408             
1 13552U 82092A   24153.77545349  .00051115  00000+0  53213-3 0  9995
2 13552  82.5562 258.4494 0011350  30.2773 329.9139 15.64280818286290
COSMOS 1408 DEB         
1 49527U 82092Q   24154.34944180  .00041894  00000+0  35112-2 0  9996
2 49527  82.3791  27.0650 0350948 127.1642 236.2163 14.60803708132850
COSMOS 1408 DEB         
1 49537U 82092AA  24153.90340143  .00025339  00000+0  10553-2 0  9995
2 49537  82.5515 308.4663 0115704 114.1471 247.1913 15.17574264139566
COSMOS 1408 DEB         
1 49539U 82092AC  24154.03943071  .00062319  00000+0  45363-2 0  9997
2 49539  82.1973   9.4089 0304764 157.2283 204.2787 14.73134316132418
COSMOS 1408 DEB         
1 49604U 82092CV  24154.35446013  .00153106  00000+0  12000-2 0  9996
2 49604  82.4970 267.9584 0019496   3.2101 356.9282 15.70843679141733
COSMOS 1408 DEB         
1 49619U 82092DL  24153.98190422  .00071357  00000+0  50945-2 0  9997
2 49619  81.9604 336.5545 0309838 160.4282 200.9141 14.72900743132611
COSMOS 1408 DEB         
1 49789U 82092JF  24153.82356715  .00177535  00000+0  15653-2 0  9999
2 49789  82.5874 288.0812 0030166   6.6888 353.4769 15.67570185140955
COSMOS 1408 DEB         
1 49840U 82092KX  24154.38416432  .00211964  00000+0  20486-2 0  9997
2 49840  82.4649 281.0727 0034514 108.7023 251.7988 15.65019960138773
COSMOS 1408 DEB         
1 50020U 82092RG  24154.16030592  .00482024  10276-3  81972-3 0  9999
2 50020  82.5988 260.1769 0009498 264.9561  95.0634 16.02510768141248
COSMOS 1408 DEB         
1 50032U 82092RU  24154.38247338  .00004735  00000+0  12502-3 0  9996
2 50032  82.5663 267.4881 0019877  71.7919 288.5488 15.37962304139998
COSMOS 1408 DEB         
1 50058U 82092SW  24154.38232393  .00009782  00000+0  26146-3 0  9995
2 50058  82.6165 280.9777 0029100 342.5657  17.4586 15.37471041141585
COSMOS 1408 DEB         
1 50123U 82092VP  24153.78808905  .00066999  00000+0  64091-3 0  9993
2 50123  82.5580 259.0369 0006502 297.5205  62.5394 15.66427876142747
COSMOS 1408 DEB         
1 50284U 82092YZ  24145.84244977  .00269246  00000+0  12173-2 0  9995
2 50284  82.6554 279.3433 0005218 322.8335  37.2572 15.83261600138071
COSMOS 1408 DEB         
1 50351U 82092ABM 24153.87366999  .00044967  00000+0  15888-2 0  9998
2 50351  82.5203 312.9039 0125762 138.8015 222.2799 15.21716333139099
COSMOS 1408 DEB         
1 50363U 82092ABZ 24154.33923223  .00068800  00000+0  14124-2 0  9996
2 50363  82.4097 275.3667 0054253 106.0247 254.6986 15.44130902137600
COSMOS 1408 DEB         
1 50404U 82092ADS 24154.09428231  .00023650  00000+0  24790-2 0  9998
2 50404  82.2460  31.1485 0424390 202.0756 156.1680 14.40586693129693
COSMOS 1408 DEB         
1 50578U 82092AJW 24154.09936976  .00067599  00000+0  80817-3 0  9993
2 50578  82.7076 286.9084 0016994 349.2879  10.8014 15.60568959137969
COSMOS 1408 DEB         
1 50621U 82092ALR 24153.39218722  .00009860  00000+0  30609-3 0  9997
2 50621  82.5782 284.7271 0048666  19.2686 341.0381 15.32026418136227
COSMOS 1408 DEB         
1 50689U 82092APM 24154.01623990  .00026139  00000+0  45121-3 0  9991
2 50689  82.5113 260.6093 0038124 284.3211  75.3808 15.50013096136185
COSMOS 1408 DEB         
1 50730U 82092ARE 24153.34666414  .00053893  00000+0  61910-3 0  9992
2 50730  82.5563 264.6268 0011323 327.0323  33.0227 15.61746935136936
COSMOS 1408 DEB         
1 50967U 82092AXN 24153.83443348  .00150326  00000+0  90356-3 0  9992
2 50967  82.7091 283.6100 0009001 290.6297  69.4004 15.77245833136155
COSMOS 1408 DEB         
1 51184U 82092AZJ 24154.32472532  .00019070  00000+0  35058-3 0  9994
2 51184  82.4936 256.2704 0018200 286.8833  73.0421 15.48886583134201
COSMOS 1408 DEB         
1 51225U 82092BBB 24154.00147698  .00054937  00000+0  69821-3 0  9993
2 51225  82.4561 258.3272 0038256  67.7231 292.8074 15.58259323134768
COSMOS 1408 DEB         
1 51322U 82092BEQ 24150.81185736  .00691654  23552-3  98943-3 0  9992
2 51322  82.7134 284.8901 0012043 347.4930  12.6050 16.05385895134093
COSMOS 1408 DEB         
1 51435U 82092BKH 24153.33318224  .00026087  00000+0  67037-3 0  9998
2 51435  82.5541 286.2574 0053594  41.1188 319.4076 15.37634086131602
COSMOS 1408 DEB         
1 51579U 82092BNG 24153.03356746  .00055425  00000+0  85253-3 0  9993
2 51579  82.4882 267.6629 0028715  41.4744 318.8680 15.53516341131942
COSMOS 1408 DEB         
1 51582U 82092BNK 24154.34103935  .00046957  00000+0  85503-3 0  9990
2 51582  82.5567 283.7811 0047735  17.6133 342.6758 15.47992303131905
COSMOS 1408 DEB         
1 52066U 82092BUU 24152.90079588  .00032242  00000+0  14062-2 0  9997
2 52066  82.5159 319.4272 0146742 172.4683 187.8805 15.12716964123920
